FLOCK 4A-12             
1 44108U 19018AE  19253.13885876  .00001765  00000-0  79725-4 0  9995
2 44108  97.4486 312.3389 0012887  84.4034 327.7695 15.22220061 24517
